0 CZ-4 DEB
1 35378U 06046L   13283.09658444  .00003524  00000-0  70077-3 0  6040
2 35378 097.7910 145.4475 0192994 251.5591 262.9754 14.51541223361185
0 CZ-4 DEB
1 35378U 06046L   13285.43474659  .00003097  00000-0  61698-3 0  6059
2 35378 097.7909 147.6181 0193013 244.2388 241.2387 14.51552526361525
0 CZ-4 DEB
1 35378U 06046L   13287.83480502  .00004709  00000-0  93213-3 0  6069
2 35378 097.7906 149.8456 0193038 236.7353 183.0576 14.51567322361866
0 CZ-4 DEB
1 35378U 06046L   13289.90245610  .00004527  00000-0  89606-3 0  6078
2 35378 097.7899 151.7649 0193063 230.2644 187.9786 14.51584468362163
0 CZ-4 DEB
1 35378U 06046L   13291.90345072  .00003713  00000-0  73653-3 0  6086
2 35378 097.7890 153.6224 0193108 223.9982 204.6885 14.51600124362466
0 CZ-4 DEB
1 35378U 06046L   13294.58420131  .00005319  00000-0  10496-2 0  6093
2 35378 097.7885 156.1109 0193184 215.6150 173.7976 14.51618579362841
